STARLINK-35640          
1 66536U 25265W   25338.58334491 -.01849275  00000+0 -14797-1 0  9990
2 66536  42.9997 102.1734 0001089 290.2471 157.5634 15.73430641  3669
STARLINK-35582          
1 66537U 25265X   25338.58334491 -.01886618  00000+0 -15115-1 0  9998
2 66537  42.9998 102.1686 0001413 287.8912 161.8091 15.73467858  3687
STARLINK-35577          
1 66538U 25265Y   25338.58334491 -.01859963  00000+0 -14886-1 0  9996
2 66538  42.9998 102.1637 0001408 288.3137 163.3230 15.73441395  3683
STARLINK-35697          
1 66539U 25265Z   25338.58334491 -.01855163  00000+0 -14848-1 0  9993
2 66539  42.9999 102.1582 0001054 282.7654 170.7933 15.73436397  3681
STARLINK-35818          
1 66540U 25265AA  25338.58334491 -.01863046  00000+0 -14912-1 0  9996
2 66540  42.9996 102.1537 0001539 291.9873 163.4819 15.73443512  3682
STARLINK-35796          
1 66541U 25265AB  25338.58334491 -.01857442  00000+0 -14862-1 0  9994
2 66541  42.9997 102.1491 0001452 289.4935 167.8921 15.73441134  3688
STARLINK-35833          
1 66542U 25265AC  25338.58334491 -.01856380  00000+0 -14858-1 0  9990
2 66542  42.9998 102.1444 0000967 278.1955 181.1114 15.73439146  3688
STARLINK-35315          
1 66543U 25265AD  25338.58334491 -.01852286  00000+0 -14819-1 0  9999
2 66543  42.9998 102.1392 0001365 294.1246 167.0991 15.73435402  3570
STARLINK-35728          
1 66544U 25265AE  25338.58334491 -.01857694  00000+0 -14870-1 0  9995
2 66544  42.9996 102.1348 0000955 273.1445 189.9976 15.73439355  3681
SHIJIAN-30A             
1 66545U 25266A   25338.58004983  .00023071  00000+0  12168-2 0  9997
2 66545  51.7998  11.0862 0012837 327.6394  32.3794 15.15389991  2348
SHIJIAN-30B             
1 66546U 25266B   25338.58098886  .00026632  00000+0  13996-2 0  9999
2 66546  51.7981  11.0901 0010504 330.6583  29.3802 15.15460005  2340
SHIJIAN-30C             
1 66547U 25266C   25338.58171655  .00023605  00000+0  12415-2 0  9998
2 66547  51.7993  11.0951 0011356 322.6871  37.3316 15.15489775  2340
