CCSDS_OMM_VERS = 2.0
CREATION_DATE  = 
ORIGINATOR     = 

OBJECT_NAME    = STARLINK-35640
OBJECT_ID      = 2025-265W
CENTER_NAME    = EARTH
REF_FRAME      = TEME
TIME_SYSTEM    = UTC
MEAN_ELEMENT_THEORY = SGP/SGP4

EPOCH          = 2025-12-04T14:00:01.000224
MEAN_MOTION    = 15.73430641
ECCENTRICITY   = .00010892
INCLINATION    = 42.9997
RA_OF_ASC_NODE = 102.1734
ARG_OF_PERICENTER = 290.2471
MEAN_ANOMALY   = 157.5634

EPHEMERIS_TYPE = 0
CLASSIFICATION_TYPE = U
NORAD_CAT_ID   = 66536
ELEMENT_SET_NO = 999
REV_AT_EPOCH   = 366
BSTAR          = -.14796827E-1
MEAN_MOTION_DOT = -.1849275E-1
MEAN_MOTION_DDOT = 0

CCSDS_OMM_VERS = 2.0
CREATION_DATE  = 
ORIGINATOR     = 

OBJECT_NAME    = STARLINK-35582
OBJECT_ID      = 2025-265X
CENTER_NAME    = EARTH
REF_FRAME      = TEME
TIME_SYSTEM    = UTC
MEAN_ELEMENT_THEORY = SGP/SGP4

EPOCH          = 2025-12-04T14:00:01.000224
MEAN_MOTION    = 15.73467858
ECCENTRICITY   = .00014134
INCLINATION    = 42.9998
RA_OF_ASC_NODE = 102.1686
ARG_OF_PERICENTER = 287.8912
MEAN_ANOMALY   = 161.8091

EPHEMERIS_TYPE = 0
CLASSIFICATION_TYPE = U
NORAD_CAT_ID   = 66537
ELEMENT_SET_NO = 999
REV_AT_EPOCH   = 368
BSTAR          = -.15114831E-1
MEAN_MOTION_DOT = -.1886618E-1
MEAN_MOTION_DDOT = 0

CCSDS_OMM_VERS = 2.0
CREATION_DATE  = 
ORIGINATOR     = 

OBJECT_NAME    = STARLINK-35577
OBJECT_ID      = 2025-265Y
CENTER_NAME    = EARTH
REF_FRAME      = TEME
TIME_SYSTEM    = UTC
MEAN_ELEMENT_THEORY = SGP/SGP4

EPOCH          = 2025-12-04T14:00:01.000224
MEAN_MOTION    = 15.73441395
ECCENTRICITY   = .00014089
INCLINATION    = 42.9998
RA_OF_ASC_NODE = 102.1637
ARG_OF_PERICENTER = 288.3137
MEAN_ANOMALY   = 163.3230

EPHEMERIS_TYPE = 0
CLASSIFICATION_TYPE = U
NORAD_CAT_ID   = 66538
ELEMENT_SET_NO = 999
REV_AT_EPOCH   = 368
BSTAR          = -.14885912E-1
MEAN_MOTION_DOT = -.1859963E-1
MEAN_MOTION_DDOT = 0

CCSDS_OMM_VERS = 2.0
CREATION_DATE  = 
ORIGINATOR     = 

OBJECT_NAME    = STARLINK-35697
OBJECT_ID      = 2025-265Z
CENTER_NAME    = EARTH
REF_FRAME      = TEME
TIME_SYSTEM    = UTC
MEAN_ELEMENT_THEORY = SGP/SGP4

EPOCH          = 2025-12-04T14:00:01.000224
MEAN_MOTION    = 15.73436397
ECCENTRICITY   = .00010545
INCLINATION    = 42.9999
RA_OF_ASC_NODE = 102.1582
ARG_OF_PERICENTER = 282.7654
MEAN_ANOMALY   = 170.7933

EPHEMERIS_TYPE = 0
CLASSIFICATION_TYPE = U
NORAD_CAT_ID   = 66539
ELEMENT_SET_NO = 999
REV_AT_EPOCH   = 368
BSTAR          = -.14847626E-1
MEAN_MOTION_DOT = -.1855163E-1
MEAN_MOTION_DDOT = 0

CCSDS_OMM_VERS = 2.0
CREATION_DATE  = 
ORIGINATOR     = 

OBJECT_NAME    = STARLINK-35818
OBJECT_ID      = 2025-265AA
CENTER_NAME    = EARTH
REF_FRAME      = TEME
TIME_SYSTEM    = UTC
MEAN_ELEMENT_THEORY = SGP/SGP4

EPOCH          = 2025-12-04T14:00:01.000224
MEAN_MOTION    = 15.73443512
ECCENTRICITY   = .00015398
INCLINATION    = 42.9996
RA_OF_ASC_NODE = 102.1537
ARG_OF_PERICENTER = 291.9873
MEAN_ANOMALY   = 163.4819

EPHEMERIS_TYPE = 0
CLASSIFICATION_TYPE = U
NORAD_CAT_ID   = 66540
ELEMENT_SET_NO = 999
REV_AT_EPOCH   = 368
BSTAR          = -.14911929E-1
MEAN_MOTION_DOT = -.1863046E-1
MEAN_MOTION_DDOT = 0

CCSDS_OMM_VERS = 2.0
CREATION_DATE  = 
ORIGINATOR     = 

OBJECT_NAME    = STARLINK-35796
OBJECT_ID      = 2025-265AB
CENTER_NAME    = EARTH
REF_FRAME      = TEME
TIME_SYSTEM    = UTC
MEAN_ELEMENT_THEORY = SGP/SGP4

EPOCH          = 2025-12-04T14:00:01.000224
MEAN_MOTION    = 15.73441134
ECCENTRICITY   = .00014529
INCLINATION    = 42.9997
RA_OF_ASC_NODE = 102.1491
ARG_OF_PERICENTER = 289.4935
MEAN_ANOMALY   = 167.8921

EPHEMERIS_TYPE = 0
CLASSIFICATION_TYPE = U
NORAD_CAT_ID   = 66541
ELEMENT_SET_NO = 999
REV_AT_EPOCH   = 368
BSTAR          = -.14862494E-1
MEAN_MOTION_DOT = -.1857442E-1
MEAN_MOTION_DDOT = 0

CCSDS_OMM_VERS = 2.0
CREATION_DATE  = 
ORIGINATOR     = 

OBJECT_NAME    = STARLINK-35833
OBJECT_ID      = 2025-265AC
CENTER_NAME    = EARTH
REF_FRAME      = TEME
TIME_SYSTEM    = UTC
MEAN_ELEMENT_THEORY = SGP/SGP4

EPOCH          = 2025-12-04T14:00:01.000224
MEAN_MOTION    = 15.73439146
ECCENTRICITY   = .00009673
INCLINATION    = 42.9998
RA_OF_ASC_NODE = 102.1444
ARG_OF_PERICENTER = 278.1955
MEAN_ANOMALY   = 181.1114

EPHEMERIS_TYPE = 0
CLASSIFICATION_TYPE = U
NORAD_CAT_ID   = 66542
ELEMENT_SET_NO = 999
REV_AT_EPOCH   = 368
BSTAR          = -.14857716E-1
MEAN_MOTION_DOT = -.185638E-1
MEAN_MOTION_DDOT = 0

CCSDS_OMM_VERS = 2.0
CREATION_DATE  = 
ORIGINATOR     = 

OBJECT_NAME    = STARLINK-35315
OBJECT_ID      = 2025-265AD
CENTER_NAME    = EARTH
REF_FRAME      = TEME
TIME_SYSTEM    = UTC
MEAN_ELEMENT_THEORY = SGP/SGP4

EPOCH          = 2025-12-04T14:00:01.000224
MEAN_MOTION    = 15.73435402
ECCENTRICITY   = .00013653
INCLINATION    = 42.9998
RA_OF_ASC_NODE = 102.1392
ARG_OF_PERICENTER = 294.1246
MEAN_ANOMALY   = 167.0991

EPHEMERIS_TYPE = 0
CLASSIFICATION_TYPE = U
NORAD_CAT_ID   = 66543
ELEMENT_SET_NO = 999
REV_AT_EPOCH   = 357
BSTAR          = -.14819382E-1
MEAN_MOTION_DOT = -.1852286E-1
MEAN_MOTION_DDOT = 0

CCSDS_OMM_VERS = 2.0
CREATION_DATE  = 
ORIGINATOR     = 

OBJECT_NAME    = STARLINK-35728
OBJECT_ID      = 2025-265AE
CENTER_NAME    = EARTH
REF_FRAME      = TEME
TIME_SYSTEM    = UTC
MEAN_ELEMENT_THEORY = SGP/SGP4

EPOCH          = 2025-12-04T14:00:01.000224
MEAN_MOTION    = 15.73439355
ECCENTRICITY   = .00009551
INCLINATION    = 42.9996
RA_OF_ASC_NODE = 102.1348
ARG_OF_PERICENTER = 273.1445
MEAN_ANOMALY   = 189.9976

EPHEMERIS_TYPE = 0
CLASSIFICATION_TYPE = U
NORAD_CAT_ID   = 66544
ELEMENT_SET_NO = 999
REV_AT_EPOCH   = 368
BSTAR          = -.14869784E-1
MEAN_MOTION_DOT = -.1857694E-1
MEAN_MOTION_DDOT = 0

CCSDS_OMM_VERS = 2.0
CREATION_DATE  = 
ORIGINATOR     = 

OBJECT_NAME    = SHIJIAN-30A
OBJECT_ID      = 2025-266A
CENTER_NAME    = EARTH
REF_FRAME      = TEME
TIME_SYSTEM    = UTC
MEAN_ELEMENT_THEORY = SGP/SGP4

EPOCH          = 2025-12-04T13:55:16.305312
MEAN_MOTION    = 15.15389991
ECCENTRICITY   = .00128377
INCLINATION    = 51.7998
RA_OF_ASC_NODE = 11.0862
ARG_OF_PERICENTER = 327.6394
MEAN_ANOMALY   = 32.3794

EPHEMERIS_TYPE = 0
CLASSIFICATION_TYPE = U
NORAD_CAT_ID   = 66545
ELEMENT_SET_NO = 999
REV_AT_EPOCH   = 234
BSTAR          = .1216803E-2
MEAN_MOTION_DOT = .23071E-3
MEAN_MOTION_DDOT = 0

CCSDS_OMM_VERS = 2.0
CREATION_DATE  = 
ORIGINATOR     = 

OBJECT_NAME    = SHIJIAN-30B
OBJECT_ID      = 2025-266B
CENTER_NAME    = EARTH
REF_FRAME      = TEME
TIME_SYSTEM    = UTC
MEAN_ELEMENT_THEORY = SGP/SGP4

EPOCH          = 2025-12-04T13:56:37.437504
MEAN_MOTION    = 15.15460005
ECCENTRICITY   = .00105044
INCLINATION    = 51.7981
RA_OF_ASC_NODE = 11.0901
ARG_OF_PERICENTER = 330.6583
MEAN_ANOMALY   = 29.3802

EPHEMERIS_TYPE = 0
CLASSIFICATION_TYPE = U
NORAD_CAT_ID   = 66546
ELEMENT_SET_NO = 999
REV_AT_EPOCH   = 234
BSTAR          = .13995536E-2
MEAN_MOTION_DOT = .26632E-3
MEAN_MOTION_DDOT = 0

CCSDS_OMM_VERS = 2.0
CREATION_DATE  = 
ORIGINATOR     = 

OBJECT_NAME    = SHIJIAN-30C
OBJECT_ID      = 2025-266C
CENTER_NAME    = EARTH
REF_FRAME      = TEME
TIME_SYSTEM    = UTC
MEAN_ELEMENT_THEORY = SGP/SGP4

EPOCH          = 2025-12-04T13:57:40.309920
MEAN_MOTION    = 15.15489775
ECCENTRICITY   = .00113564
INCLINATION    = 51.7993
RA_OF_ASC_NODE = 11.0951
ARG_OF_PERICENTER = 322.6871
MEAN_ANOMALY   = 37.3316

EPHEMERIS_TYPE = 0
CLASSIFICATION_TYPE = U
NORAD_CAT_ID   = 66547
ELEMENT_SET_NO = 999
REV_AT_EPOCH   = 234
BSTAR          = .12415108E-2
MEAN_MOTION_DOT = .23605E-3
MEAN_MOTION_DDOT = 0

